[
    {
        "Altitude(m)": 702877.8169534646,
        "Argument of Periapsis(deg)": 0.007973084830638947,
        "Eccentricity": 0.0,
        "Inclination(deg)": 45.0,
        "Latitude(deg)": 5.820385549807362,
        "Longitude(deg)": 78.64851451653328,
        "Mean Anomaly(deg)": 171.7096516532366,
        "RAAN(deg)": 4.992473640979257,
        "Satellite Name": "Constellation 1 32",
        "Satellite Number": 32,
        "Semi-Major Axis(m)": 7083131.272910544,
        "Time(s)": 133
    },
    {
        "Altitude(m)": 702880.6290228639,
        "Argument of Periapsis(deg)": 0.008033032836884352,
        "Eccentricity": 0.0,
        "Inclination(deg)": 45.0,
        "Latitude(deg)": 5.777387256976834,
        "Longitude(deg)": 78.68771029384425,
        "Mean Anomaly(deg)": 171.7703527934865,
        "RAAN(deg)": 4.992417051813688,
        "Satellite Name": "Constellation 1 32",
        "Satellite Number": 32,
        "Semi-Major Axis(m)": 7083131.272910544,
        "Time(s)": 134
    },
    {
        "Altitude(m)": 702883.4617523348,
        "Argument of Periapsis(deg)": 0.008092980843129758,
        "Eccentricity": 0.0,
        "Inclination(deg)": 45.0,
        "Latitude(deg)": 5.734385654652041,
        "Longitude(deg)": 78.72689948932401,
        "Mean Anomaly(deg)": 171.8310539337364,
        "RAAN(deg)": 4.992360462648118,
        "Satellite Name": "Constellation 1 32",
        "Satellite Number": 32,
        "Semi-Major Axis(m)": 7083131.272910544,
        "Time(s)": 135
    },
    {
        "Altitude(m)": 702886.3151478603,
        "Argument of Periapsis(deg)": 0.008152928849375162,
        "Eccentricity": 0.0,
        "Inclination(deg)": 45.0,
        "Latitude(deg)": 5.691380768624234,
        "Longitude(deg)": 78.76608215227431,
        "Mean Anomaly(deg)": 171.8917550739863,
        "RAAN(deg)": 4.992303873482549,
        "Satellite Name": "Constellation 1 32",
        "Satellite Number": 32,
        "Semi-Major Axis(m)": 7083131.272910544,
        "Time(s)": 136
    },
    {
        "Altitude(m)": 702889.1892153556,
        "Argument of Periapsis(deg)": 0.008212876855620568,
        "Eccentricity": 0.0,
        "Inclination(deg)": 45.0,
        "Latitude(deg)": 5.648372624672175,
        "Longitude(deg)": 78.80525833198227,
        "Mean Anomaly(deg)": 171.9524562142362,
        "RAAN(deg)": 4.99224728431698,
        "Satellite Name": "Constellation 1 32",
        "Satellite Number": 32,
        "Semi-Major Axis(m)": 7083131.272910544,
        "Time(s)": 137
    },
    {
        "Altitude(m)": 702892.0839606252,
        "Argument of Periapsis(deg)": 0.008272824861865974,
        "Eccentricity": 0.0,
        "Inclination(deg)": 45.0,
        "Latitude(deg)": 5.605361248562075,
        "Longitude(deg)": 78.84442807772079,
        "Mean Anomaly(deg)": 172.01315735448608,
        "RAAN(deg)": 4.99219069515141,
        "Satellite Name": "Constellation 1 32",
        "Satellite Number": 32,
        "Semi-Major Axis(m)": 7083131.272910544,
        "Time(s)": 138
    },
    {
        "Altitude(m)": 702894.9993893927,
        "Argument of Periapsis(deg)": 0.00833277286811138,
        "Eccentricity": 0.0,
        "Inclination(deg)": 45.0,
        "Latitude(deg)": 5.562346666047842,
        "Longitude(deg)": 78.88359143874858,
        "Mean Anomaly(deg)": 172.073858494736,
        "RAAN(deg)": 4.992134105985841,
        "Satellite Name": "Constellation 1 32",
        "Satellite Number": 32,
        "Semi-Major Axis(m)": 7083131.272910544,
        "Time(s)": 139
    },
    {
        "Altitude(m)": 702897.9355072835,
        "Argument of Periapsis(deg)": 0.008392720874356788,
        "Eccentricity": 0.0,
        "Inclination(deg)": 45.0,
        "Latitude(deg)": 5.5193289028711385,
        "Longitude(deg)": 78.92274846431013,
        "Mean Anomaly(deg)": 172.1345596349859,
        "RAAN(deg)": 4.99207751682027,
        "Satellite Name": "Constellation 1 32",
        "Satellite Number": 32,
        "Semi-Major Axis(m)": 7083131.272910544,
        "Time(s)": 140
    },
    {
        "Altitude(m)": 702900.8923198422,
        "Argument of Periapsis(deg)": 0.008452668880602192,
        "Eccentricity": 0.0,
        "Inclination(deg)": 45.0,
        "Latitude(deg)": 5.476307984761323,
        "Longitude(deg)": 78.96189903553886,
        "Mean Anomaly(deg)": 172.1952607752358,
        "RAAN(deg)": 4.992020927654702,
        "Satellite Name": "Constellation 1 32",
        "Satellite Number": 32,
        "Semi-Major Axis(m)": 7083131.272910544,
        "Time(s)": 141
    },
    {
        "Altitude(m)": 702903.8698325093,
        "Argument of Periapsis(deg)": 0.008512616886847598,
        "Eccentricity": 0.0,
        "Inclination(deg)": 45.0,
        "Latitude(deg)": 5.433283937436091,
        "Longitude(deg)": 79.00104353784535,
        "Mean Anomaly(deg)": 172.25596191548567,
        "RAAN(deg)": 4.991964338489132,
        "Satellite Name": "Constellation 1 32",
        "Satellite Number": 32,
        "Semi-Major Axis(m)": 7083131.272910544,
        "Time(s)": 142
    },
    {
        "Altitude(m)": 702906.8680506486,
        "Argument of Periapsis(deg)": 0.008572564893093004,
        "Eccentricity": 0.0,
        "Inclination(deg)": 45.0,
        "Latitude(deg)": 5.390256786600703,
        "Longitude(deg)": 79.04018185233527,
        "Mean Anomaly(deg)": 172.3166630557356,
        "RAAN(deg)": 4.991907749323563,
        "Satellite Name": "Constellation 1 32",
        "Satellite Number": 32,
        "Semi-Major Axis(m)": 7083131.272910544,
        "Time(s)": 143
    },
    {
        "Altitude(m)": 702909.8869795174,
        "Argument of Periapsis(deg)": 0.008632512899338408,
        "Eccentricity": 0.0,
        "Inclination(deg)": 45.0,
        "Latitude(deg)": 5.347226557948782,
        "Longitude(deg)": 79.07931402819757,
        "Mean Anomaly(deg)": 172.37736419598548,
        "RAAN(deg)": 4.991851160157993,
        "Satellite Name": "Constellation 1 32",
        "Satellite Number": 32,
        "Semi-Major Axis(m)": 7083131.272910544,
        "Time(s)": 144
    },
    {
        "Altitude(m)": 702912.9266242895,
        "Argument of Periapsis(deg)": 0.008692460905583814,
        "Eccentricity": 0.0,
        "Inclination(deg)": 45.0,
        "Latitude(deg)": 5.304193277162057,
        "Longitude(deg)": 79.1184401146076,
        "Mean Anomaly(deg)": 172.43806533623538,
        "RAAN(deg)": 4.991794570992423,
        "Satellite Name": "Constellation 1 32",
        "Satellite Number": 32,
        "Semi-Major Axis(m)": 7083131.272910544,
        "Time(s)": 145
    },
    {
        "Altitude(m)": 702915.9869900537,
        "Argument of Periapsis(deg)": 0.00875240891182922,
        "Eccentricity": 0.0,
        "Inclination(deg)": 45.0,
        "Latitude(deg)": 5.26115696991071,
        "Longitude(deg)": 79.15756016072703,
        "Mean Anomaly(deg)": 172.4987664764853,
        "RAAN(deg)": 4.991737981826854,
        "Satellite Name": "Constellation 1 32",
        "Satellite Number": 32,
        "Semi-Major Axis(m)": 7083131.272910544,
        "Time(s)": 146
    },
    {
        "Altitude(m)": 702919.0680817936,
        "Argument of Periapsis(deg)": 0.008812356918074627,
        "Eccentricity": 0.0,
        "Inclination(deg)": 45.0,
        "Latitude(deg)": 5.21811766185313,
        "Longitude(deg)": 79.19667421570428,
        "Mean Anomaly(deg)": 172.5594676167352,
        "RAAN(deg)": 4.991681392661285,
        "Satellite Name": "Constellation 1 32",
        "Satellite Number": 32,
        "Semi-Major Axis(m)": 7083131.272910544,
        "Time(s)": 147
    },
    {
        "Altitude(m)": 702922.1699044129,
        "Argument of Periapsis(deg)": 0.008872304924320031,
        "Eccentricity": 0.0,
        "Inclination(deg)": 45.0,
        "Latitude(deg)": 5.175075378636268,
        "Longitude(deg)": 79.23578216057723,
        "Mean Anomaly(deg)": 172.62016875698507,
        "RAAN(deg)": 4.991624803495715,
        "Satellite Name": "Constellation 1 32",
        "Satellite Number": 32,
        "Semi-Major Axis(m)": 7083131.272910544,
        "Time(s)": 148
    },
    {
        "Altitude(m)": 702925.2924627134,
        "Argument of Periapsis(deg)": 0.008932252930565437,
        "Eccentricity": 0.0,
        "Inclination(deg)": 45.0,
        "Latitude(deg)": 5.132030145895897,
        "Longitude(deg)": 79.27488438066185,
        "Mean Anomaly(deg)": 172.680869897235,
        "RAAN(deg)": 4.991568214330146,
        "Satellite Name": "Constellation 1 32",
        "Satellite Number": 32,
        "Semi-Major Axis(m)": 7083131.272910544,
        "Time(s)": 149
    },
    {
        "Altitude(m)": 702928.4357614152,
        "Argument of Periapsis(deg)": 0.008992200936810843,
        "Eccentricity": 0.0,
        "Inclination(deg)": 45.0,
        "Latitude(deg)": 5.0889819892561325,
        "Longitude(deg)": 79.3139807569697,
        "Mean Anomaly(deg)": 172.74157103748487,
        "RAAN(deg)": 4.991511625164575,
        "Satellite Name": "Constellation 1 32",
        "Satellite Number": 32,
        "Semi-Major Axis(m)": 7083131.272910544,
        "Time(s)": 150
    },
    {
        "Altitude(m)": 702931.5998051446,
        "Argument of Periapsis(deg)": 0.009052148943056249,
        "Eccentricity": 0.0,
        "Inclination(deg)": 45.0,
        "Latitude(deg)": 5.045930934330065,
        "Longitude(deg)": 79.35307133859638,
        "Mean Anomaly(deg)": 172.80227217773478,
        "RAAN(deg)": 4.991455035999007,
        "Satellite Name": "Constellation 1 32",
        "Satellite Number": 32,
        "Semi-Major Axis(m)": 7083131.272910544,
        "Time(s)": 151
    }
]